COMMENT,ORIGINATOR,NORAD_CAT_ID,OBJECT_NAME,OBJECT_TYPE,CLASSIFICATION_TYPE,INTLDES,EPOCH,EPOCH_MICROSECONDS,MEAN_MOTION,ECCENTRICITY,INCLINATION,RA_OF_ASC_NODE,ARG_OF_PERICENTER,MEAN_ANOMALY,EPHEMERIS_TYPE,ELEMENT_SET_NO,REV_AT_EPOCH,BSTAR,MEAN_MOTION_DOT,MEAN_MOTION_DDOT,FILE,TLE_LINE0,TLE_LINE1,TLE_LINE2,OBJECT_ID,OBJECT_NUMBER,SEMIMAJOR_AXIS,PERIOD,APOGEE,PERIGEE,DECAYED
"GENERATED VIA SPACETRACK.ORG API","18 SPCS","48897","SPACEBEE-109","PAYLOAD","U","21059U","2024-02-27 21:46:33","133152","16.04058026","0.0011269","97.5955","215.4957","298.5595","61.455","0","999","14903","0.0021811","0.01384816","0.0011426","4200457","0 SPACEBEE-109","1 48897U 21059U   24058.90732793  .01384816  11426-2  21811-2 0  9994","2 48897  97.5955 215.4957 0011269 298.5595  61.4550 16.04058026149033","2021-059U","48897","6641.331","89.772","270.680","255.712","0"
"GENERATED VIA SPACETRACK.ORG API","18 SPCS","48897","SPACEBEE-109","PAYLOAD","U","21059U","2024-02-28 03:45:49","166784","16.04698766","0.0011277","97.595","215.781","298.0382","61.9757","0","999","14907","0.0020484","0.01352571","0.0010928","4200539","0 SPACEBEE-109","1 48897U 21059U   24059.15681906  .01352571  10928-2  20484-2 0  9995","2 48897  97.5950 215.7810 0011277 298.0382  61.9757 16.04698766149076","2021-059U","48897","6639.563","89.736","268.915","253.941","0"
"GENERATED VIA SPACETRACK.ORG API","18 SPCS","48897","SPACEBEE-109","PAYLOAD","U","21059U","2024-02-28 09:44:57","63264","16.0530477","0.0011176","97.5949","216.0661","297.3375","62.6767","0","999","14911","0.0019131","0.01311575","0.0010266","4200880","0 SPACEBEE-109","1 48897U 21059U   24059.40621601  .01311575  10266-2  19131-2 0  9990","2 48897  97.5949 216.0661 0011176 297.3375  62.6767 16.05304770149118","2021-059U","48897","6637.892","89.703","267.175","252.338","0"
"GENERATED VIA SPACETRACK.ORG API","18 SPCS","48897","SPACEBEE-109","PAYLOAD","U","21059U","2024-02-28 09:44:57","63264","16.0530477","0.0011176","97.5949","216.0661","297.3375","62.6767","0","999","14911","0.0019131","0.01311575","0.0010266","4201083","0 SPACEBEE-109","1 48897U 21059U   24059.40621601  .01311575  10266-2  19131-2 0  9990","2 48897  97.5949 216.0661 0011176 297.3375  62.6767 16.05304770149118","2021-059U","48897","6637.892","89.703","267.175","252.338","0"
"GENERATED VIA SPACETRACK.ORG API","18 SPCS","48897","SPACEBEE-109","PAYLOAD","U","21059U","2024-02-28 15:43:55","799616","16.06029868","0.0011286","97.5948","216.3512","297.0257","62.9871","0","999","14915","0.0020782","0.01480273","0.0014057","4201225","0 SPACEBEE-109","1 48897U 21059U   24059.65550694  .01480273  14057-2  20782-2 0  9998","2 48897  97.5948 216.3512 0011286 297.0257  62.9871 16.06029868149159","2021-059U","48897","6635.894","89.662","265.248","250.270","0"
"GENERATED VIA SPACETRACK.ORG API","18 SPCS","48897","SPACEBEE-109","PAYLOAD","U","21059U","2024-02-28 21:42:43","589088","16.06871147","0.0011405","97.5947","216.6364","297.2897","62.7223","0","999","14919","0.0021649","0.01614171","0.0017892","4201365","0 SPACEBEE-109","1 48897U 21059U   24059.90467117  .01614171  17892-2  21649-2 0  9992","2 48897  97.5947 216.6364 0011405 297.2897  62.7223 16.06871147149199","2021-059U","48897","6633.577","89.615","263.008","247.877","0"
"GENERATED VIA SPACETRACK.ORG API","18 SPCS","48897","SPACEBEE-109","PAYLOAD","U","21059U","2024-02-28 23:12:23","748192","16.07091432","0.0011408","97.5945","216.7078","297.3014","62.7105","0","999","14920","0.0021782","0.016438","0.0018865","4201458","0 SPACEBEE-109","1 48897U 21059U   24059.96694153  .01643800  18865-2  21782-2 0  9990","2 48897  97.5945 216.7078 0011408 297.3014  62.7105 16.07091432149208","2021-059U","48897","6632.971","89.603","262.403","247.269","0"
"GENERATED VIA SPACETRACK.ORG API","18 SPCS","48897","SPACEBEE-109","PAYLOAD","U","21059U","2024-02-29 09:39:45","84960","16.08616903","0.0011465","97.5943","217.2075","298.4583","61.5543","0","999","14927","0.0021216","0.01749448","0.002317","4201755","0 SPACEBEE-109","1 48897U 21059U   24060.40260515  .01749448  23170-2  21216-2 0  9994","2 48897  97.5943 217.2075 0011465 298.4583  61.5543 16.08616903149272","2021-059U","48897","6628.777","89.518","258.242","243.042","0"
"GENERATED VIA SPACETRACK.ORG API","18 SPCS","48897","SPACEBEE-109","PAYLOAD","U","21059U","2024-02-29 09:39:45","84960","16.08616903","0.0011465","97.5943","217.2075","298.4583","61.5543","0","999","14927","0.0021216","0.01749448","0.002317","4201938","0 SPACEBEE-109","1 48897U 21059U   24060.40260515  .01749448  23170-2  21216-2 0  9994","2 48897  97.5943 217.2075 0011465 298.4583  61.5543 16.08616903149272","2021-059U","48897","6628.777","89.518","258.242","243.042","0"
"GENERATED VIA SPACETRACK.ORG API","18 SPCS","48897","SPACEBEE-109","PAYLOAD","U","21059U","2024-02-29 21:35:59","402112","16.10506737","0.0011778","97.5936","217.7794","299.9896","60.0218","0","999","14935","0.0021613","0.01974755","0.0034596","4202276","0 SPACEBEE-109","1 48897U 21059U   24060.89999308  .01974755  34596-2  21613-2 0  9992","2 48897  97.5936 217.7794 0011778 299.9896  60.0218 16.10506737149355","2021-059U","48897","6623.591","89.413","253.257","237.654","0"
"GENERATED VIA SPACETRACK.ORG API","18 SPCS","48897","SPACEBEE-109","PAYLOAD","U","21059U","2024-02-29 23:05:27","587904","16.10698577","0.0011752","97.5932","217.851","299.939","60.0725","0","999","14936","0.0020318","0.01892092","0.0030653","4202397","0 SPACEBEE-109","1 48897U 21059U   24060.96212486  .01892092  30653-2  20318-2 0  9999","2 48897  97.5932 217.8510 0011752 299.9390  60.0725 16.10698577149367","2021-059U","48897","6623.065","89.402","252.713","237.146","0"
"GENERATED VIA SPACETRACK.ORG API","18 SPCS","48897","SPACEBEE-109","PAYLOAD","U","21059U","2024-03-01 09:31:20","961696","16.12577427","0.0011764","97.5924","218.3525","299.4672","60.5438","0","999","14943","0.0020699","0.02123025","0.0046669","4202660","0 SPACEBEE-109","1 48897U 21059U   24061.39677039  .02123025  46669-2  20699-2 0  9996","2 48897  97.5924 218.3525 0011764 299.4672  60.5438 16.12577427149437","2021-059U","48897","6617.919","89.298","247.569","231.999","0"
"GENERATED VIA SPACETRACK.ORG API","18 SPCS","48897","SPACEBEE-109","PAYLOAD","U","21059U","2024-03-01 09:31:20","961696","16.12577427","0.0011764","97.5924","218.3525","299.4672","60.5438","0","999","14943","0.0020699","0.02123025","0.0046669","4202819","0 SPACEBEE-109","1 48897U 21059U   24061.39677039  .02123025  46669-2  20699-2 0  9996","2 48897  97.5924 218.3525 0011764 299.4672  60.5438 16.12577427149437","2021-059U","48897","6617.919","89.298","247.569","231.999","0"
"GENERATED VIA SPACETRACK.ORG API","18 SPCS","48897","SPACEBEE-109","PAYLOAD","U","21059U","2024-03-01 21:25:42","999456","16.15066085","0.0011793","97.5916","218.9256","300.3991","59.6128","0","999","14951","0.0021677","0.02438048","0.0090507","4203428","0 SPACEBEE-109","1 48897U 21059U   24061.89285879  .02438048  90507-2  21677-2 0  9999","2 48897  97.5916 218.9256 0011793 300.3991  59.6128 16.15066085149513","2021-059U","48897","6611.119","89.160","240.781","225.188","0"
"GENERATED VIA SPACETRACK.ORG API","18 SPCS","48897","SPACEBEE-109","PAYLOAD","U","21059U","2024-03-01 22:54:55","896768","16.15353344","0.0011605","97.5916","218.9976","300.2331","59.7805","0","999","14952","0.0020625","0.02391562","0.0084017","4203564","0 SPACEBEE-109","1 48897U 21059U   24061.95481362  .02391562  84017-2  20625-2 0  9991","2 48897  97.5916 218.9976 0011605 300.2331  59.7805 16.15353344149522","2021-059U","48897","6610.335","89.145","239.872","224.529","0"
"GENERATED VIA SPACETRACK.ORG API","18 SPCS","48897","SPACEBEE-109","PAYLOAD","U","21059U","2024-03-02 09:18:50","37696","16.18174703","0.0011831","97.5905","219.5007","299.7637","60.2473","0","999","14959","0.0019677","0.03262631","0.0000025341","4204066","0 SPACEBEE-109","1 48897U 21059U   24062.38807914  .03262631  25341-5  19677-2 0  9992","2 48897  97.5905 219.5007 0011831 299.7637  60.2473 16.18174703149592","2021-059U","48897","6602.649","88.989","232.326","216.703","0"
"GENERATED VIA SPACETRACK.ORG API","18 SPCS","48897","SPACEBEE-109","PAYLOAD","U","21059U","2024-03-02 09:18:50","37696","16.18174703","0.0011831","97.5905","219.5007","299.7637","60.2473","0","999","14959","0.0019677","0.03262631","0.0000025341","4204354","0 SPACEBEE-109","1 48897U 21059U   24062.38807914  .03262631  25341-5  19677-2 0  9992","2 48897  97.5905 219.5007 0011831 299.7637  60.2473 16.18174703149592","2021-059U","48897","6602.649","88.989","232.326","216.703","0"
"GENERATED VIA SPACETRACK.ORG API","18 SPCS","48897","SPACEBEE-109","PAYLOAD","U","21059U","2024-03-03 03:05:29","632416","16.24564756","0.0011716","97.5876","220.3667","299.2153","60.7965","0","999","14971","0.0017551","0.04810213","0.0000025659","4205068","0 SPACEBEE-109","1 48897U 21059U   24063.12881519  .04810213  25659-5  17551-2 0  9995","2 48897  97.5876 220.3667 0011716 299.2153  60.7965 16.24564756149714","2021-059U","48897","6585.324","88.639","214.905","199.474","0"
"GENERATED VIA SPACETRACK.ORG API","18 SPCS","48897","SPACEBEE-109","PAYLOAD","U","21059U","2024-03-03 08:59:59","709696","16.27485263","0.0011488","97.5852","220.6553","298.8499","61.164","0","999","14975","0.0016582","0.05836044","0.0000025783","4205770","0 SPACEBEE-109","1 48897U 21059U   24063.37499664  .05836044  25783-5  16582-2 0  9990","2 48897  97.5852 220.6553 0011488 298.8499  61.1640 16.27485263149756","2021-059U","48897","6577.444","88.480","206.865","191.752","0"
"GENERATED VIA SPACETRACK.ORG API","18 SPCS","48897","SPACEBEE-109","PAYLOAD","U","21059U","2024-03-03 08:59:59","709696","16.27485263","0.0011488","97.5852","220.6553","298.8499","61.164","0","999","14975","0.0016582","0.05836044","0.0000025783","4206173","0 SPACEBEE-109","1 48897U 21059U   24063.37499664  .05836044  25783-5  16582-2 0  9990","2 48897  97.5852 220.6553 0011488 298.8499  61.1640 16.27485263149756","2021-059U","48897","6577.444","88.480","206.865","191.752","0"
